PROGRESS-MS 34          
1 68837U 26093A   26192.31485778  .00005525  00000+0  10843-3 0  9990
2 68837  51.6302 180.6822 0006688 282.4935  77.5305 15.48978902699193
TIANZHOU-10             
1 69049U 26102A   26192.62540877  .00001368  00000+0  21992-4 0  9992
2 69049  41.4689 173.4699 0002534 289.9919  70.0645 15.58019839296303
SHENZHOU-23 (SZ-23)     
1 69180U 26113A   26192.62540877  .00001368  00000+0  21992-4 0  9990
2 69180  41.4689 173.4699 0002534 289.9919  70.0645 15.58019839296051
